{"type": "FeatureCollection", "features": [ {"type": "Feature", "properties": {"norad_id": 40697, "name": "SENTINEL-2A", "group": "resource", "lat": -79.53377263207405, "lon": 178.30246209588952, "alt_km": 797.0403591273789, "timestamp": "2025-12-06T09:34:16.575151+00:00", "meta": {"OBJECT_NAME": "SENTINEL-2A", "OBJECT_ID": "2015-028A", "EPOCH": "2025-12-05T22:16:17.041728", "MEAN_MOTION": 14.30823199, "ECCENTRICITY": 0.00010365, "INCLINATION": 98.5702, "RA_OF_ASC_NODE": 52.5578, "ARG_OF_PERICENTER": 94.4129, "MEAN_ANOMALY": 265.7172, "EPHEMERIS_TYPE": 0, "CLASSIFICATION_TYPE": "U", "NORAD_CAT_ID": 40697, "ELEMENT_SET_NO": 999, "REV_AT_EPOCH": 54609, "BSTAR": 0.00013713602, "MEAN_MOTION_DOT": 3.16e-06, "MEAN_MOTION_DDOT": 0}, "tle": {"line1": "1 40697U 15028A   25339.92797502  .00000316  00000+0  13714-3 0  9993", "line2": "2 40697  98.5702  52.5578 0001036  94.4129 265.7172 14.30823199546094"}}, "geometry": {"type": "Point", "coordinates": [178.30246209588952, -79.53377263207405]}}, {"type": "Feature", "properties": {"norad_id": 40701, "name": "GAOFEN-8", "group": "resource", "lat": 18.842394542920577, "lon": 155.5884899012687, "alt_km": 457.7224432960329, "timestamp": "2025-12-06T09:34:16.575162+00:00", "meta": {"OBJECT_NAME": "GAOFEN-8", "OBJECT_ID": "2015-030A", "EPOCH": "2025-12-05T22:33:35.558496", "MEAN_MOTION": 15.38205776, "ECCENTRICITY": 0.00113167, "INCLINATION": 97.6907, "RA_OF_ASC_NODE": 157.7509, "ARG_OF_PERICENTER": 161.9516, "MEAN_ANOMALY": 198.2133, "EPHEMERIS_TYPE": 0, "CLASSIFICATION_TYPE": "U", "NORAD_CAT_ID": 40701, "ELEMENT_SET_NO": 999, "REV_AT_EPOCH": 58166, "BSTAR": 0.0006764667, "MEAN_MOTION_DOT": 0.00025476, "MEAN_MOTION_DDOT": 0}, "tle": {"line1": "1 40701U 15030A   25339.93999489  .00025476  00000+0  67647-3 0  9999", "line2": "2 40701  97.6907 157.7509 0011316 161.9516 198.2133 15.38205776581664"}}, "geometry": {"type": "Point", "coordinates": [155.5884899012687, 18.842394542920577]}}, {"type": "Feature", "properties": {"norad_id": 40718, "name": "CARBONITE 1 (CBNT-1)", "group": "resource", "lat": 40.12138445587526, "lon": -11.782587562851578, "alt_km": 613.3396635166146, "timestamp": "2025-12-06T09:34:16.575171+00:00", "meta": {"OBJECT_NAME": "CARBONITE 1 (CBNT-1)", "OBJECT_ID": "2015-032D", "EPOCH": "2025-12-05T23:13:33.178368", "MEAN_MOTION": 14.82693664, "ECCENTRICITY": 0.00139625, "INCLINATION": 97.6401, "RA_OF_ASC_NODE": 161.3104, "ARG_OF_PERICENTER": 204.1421, "MEAN_ANOMALY": 155.9141, "EPHEMERIS_TYPE": 0, "CLASSIFICATION_TYPE": "U", "NORAD_CAT_ID": 40718, "ELEMENT_SET_NO": 999, "REV_AT_EPOCH": 56070, "BSTAR": 0.0005003404, "MEAN_MOTION_DOT": 3.993e-05, "MEAN_MOTION_DDOT": 0}, "tle": {"line1": "1 40718U 15032D   25339.96774512  .00003993  00000+0  50034-3 0  9992", "line2": "2 40718  97.6401 161.3104 0013962 204.1421 155.9141 14.82693664560703"}}, "geometry": {"type": "Point", "coordinates": [-11.782587562851578, 40.12138445587526]}}, {"type": "Feature", "properties": {"norad_id": 40878, "name": "YAOGAN-27", "group": "resource", "lat": 35.38816343057455, "lon": -36.968163091041525, "alt_km": 1197.6045815011867, "timestamp": "2025-12-06T09:34:16.575182+00:00", "meta": {"OBJECT_NAME": "YAOGAN-27", "OBJECT_ID": "2015-040A", "EPOCH": "2025-12-05T22:26:30.422112", "MEAN_MOTION": 13.16059908, "ECCENTRICITY": 0.00077004, "INCLINATION": 100.1006, "RA_OF_ASC_NODE": 329.8631, "ARG_OF_PERICENTER": 303.4304, "MEAN_ANOMALY": 56.6073, "EPHEMERIS_TYPE": 0, "CLASSIFICATION_TYPE": "U", "NORAD_CAT_ID": 40878, "ELEMENT_SET_NO": 999, "REV_AT_EPOCH": 49224, "BSTAR": 0.00016925671, "MEAN_MOTION_DOT": 2.2e-07, "MEAN_MOTION_DDOT": 0}, "tle": {"line1": "1 40878U 15040A   25339.93507433  .00000022  00000+0  16926-3 0  9993", "line2": "2 40878 100.1006 329.8631 0007700 303.4304  56.6073 13.16059908492240"}}, "geometry": {"type": "Point", "coordinates": [-36.968163091041525, 35.38816343057455]}}, {"type": "Feature", "properties": {"norad_id": 40894, "name": "GAOFEN-9 01", "group": "resource", "lat": 66.22497739115667, "lon": 1.85226370039232, "alt_km": 595.6603349664956, "timestamp": "2025-12-06T09:34:16.575192+00:00", "meta": {"OBJECT_NAME": "GAOFEN-9 01", "OBJECT_ID": "2015-047A", "EPOCH": "2025-12-05T23:32:59.330400", "MEAN_MOTION": 14.82395901, "ECCENTRICITY": 0.00288345, "INCLINATION": 97.6548, "RA_OF_ASC_NODE": 19.2287, "ARG_OF_PERICENTER": 55.6704, "MEAN_ANOMALY": 304.7233, "EPHEMERIS_TYPE": 0, "CLASSIFICATION_TYPE": "U", "NORAD_CAT_ID": 40894, "ELEMENT_SET_NO": 999, "REV_AT_EPOCH": 55156, "BSTAR": 0.00029902312, "MEAN_MOTION_DOT": 2.361e-05, "MEAN_MOTION_DDOT": 0}, "tle": {"line1": "1 40894U 15047A   25339.98124225  .00002361  00000+0  29902-3 0  9993", "line2": "2 40894  97.6548  19.2287 0028834  55.6704 304.7233 14.82395901551563"}}, "geometry": {"type": "Point", "coordinates": [1.85226370039232, 66.22497739115667]}}, {"type": "Feature", "properties": {"norad_id": 41026, "name": "YAOGAN-28", "group": "resource", "lat": -15.240227341205394, "lon": 120.36736421216384, "alt_km": 505.92966256816544, "timestamp": "2025-12-06T09:34:16.575202+00:00", "meta": {"OBJECT_NAME": "YAOGAN-28", "OBJECT_ID": "2015-064A", "EPOCH": "2025-12-05T22:36:33.422400", "MEAN_MOTION": 15.24177586, "ECCENTRICITY": 0.0012026, "INCLINATION": 97.2806, "RA_OF_ASC_NODE": 117.9276, "ARG_OF_PERICENTER": 148.5727, "MEAN_ANOMALY": 211.6232, "EPHEMERIS_TYPE": 0, "CLASSIFICATION_TYPE": "U", "NORAD_CAT_ID": 41026, "ELEMENT_SET_NO": 999, "REV_AT_EPOCH": 56121, "BSTAR": 0.00061740694, "MEAN_MOTION_DOT": 0.0001501, "MEAN_MOTION_DDOT": 0}, "tle": {"line1": "1 41026U 15064A   25339.94205350  .00015010  00000+0  61741-3 0  9997", "line2": "2 41026  97.2806 117.9276 0012026 148.5727 211.6232 15.24177586561213"}}, "geometry": {"type": "Point", "coordinates": [120.36736421216384, -15.240227341205394]}}, {"type": "Feature", "properties": {"norad_id": 41038, "name": "YAOGAN-29", "group": "resource", "lat": -54.88446694639955, "lon": 15.119507591415216, "alt_km": 627.079206608093, "timestamp": "2025-12-06T09:34:16.575213+00:00", "meta": {"OBJECT_NAME": "YAOGAN-29", "OBJECT_ID": "2015-069A", "EPOCH": "2025-12-05T22:29:08.706048", "MEAN_MOTION": 14.82870877, "ECCENTRICITY": 5.613e-05, "INCLINATION": 98.0224, "RA_OF_ASC_NODE": 3.0866, "ARG_OF_PERICENTER": 358.8056, "MEAN_ANOMALY": 1.3156, "EPHEMERIS_TYPE": 0, "CLASSIFICATION_TYPE": "U", "NORAD_CAT_ID": 41038, "ELEMENT_SET_NO": 999, "REV_AT_EPOCH": 54198, "BSTAR": 0.00011740289, "MEAN_MOTION_DOT": 8.97e-06, "MEAN_MOTION_DDOT": 0}, "tle": {"line1": "1 41038U 15069A   25339.93690632  .00000897  00000+0  11740-3 0  9996", "line2": "2 41038  98.0224   3.0866 0000561 358.8056   1.3156 14.82870877541988"}}, "geometry": {"type": "Point", "coordinates": [15.119507591415216, -54.88446694639955]}}, {"type": "Feature", "properties": {"norad_id": 41167, "name": "KENT RIDGE 1", "group": "resource", "lat": -14.946195293320372, "lon": 171.51640856273585, "alt_km": 503.6919830448469, "timestamp": "2025-12-06T09:34:16.575224+00:00", "meta": {"OBJECT_NAME": "KENT RIDGE 1", "OBJECT_ID": "2015-077B", "EPOCH": "2025-12-05T10:21:04.162752", "MEAN_MOTION": 15.2154754, "ECCENTRICITY": 0.00086096, "INCLINATION": 14.9801, "RA_OF_ASC_NODE": 265.3698, "ARG_OF_PERICENTER": 27.2296, "MEAN_ANOMALY": 332.8476, "EPHEMERIS_TYPE": 0, "CLASSIFICATION_TYPE": "U", "NORAD_CAT_ID": 41167, "ELEMENT_SET_NO": 999, "REV_AT_EPOCH": 55152, "BSTAR": 0.00031192273, "MEAN_MOTION_DOT": 8.012e-05, "MEAN_MOTION_DDOT": 0}, "tle": {"line1": "1 41167U 15077B   25339.43129818  .00008012  00000+0  31192-3 0  9996", "line2": "2 41167  14.9801 265.3698 0008609  27.2296 332.8476 15.21547540551529"}}, "geometry": {"type": "Point", "coordinates": [171.51640856273585, -14.946195293320372]}}, {"type": "Feature", "properties": {"norad_id": 41194, "name": "GAOFEN-4", "group": "resource", "lat": -0.14010073549049612, "lon": -35.27323893204718, "alt_km": 35797.33609743907, "timestamp": "2025-12-06T09:34:16.575235+00:00", "meta": {"OBJECT_NAME": "GAOFEN-4", "OBJECT_ID": "2015-083A", "EPOCH": "2025-12-05T21:51:38.700576", "MEAN_MOTION": 1.00272405, "ECCENTRICITY": 0.00036442, "INCLINATION": 0.1521, "RA_OF_ASC_NODE": 80.9122, "ARG_OF_PERICENTER": 105.772, "MEAN_ANOMALY": 321.8871, "EPHEMERIS_TYPE": 0, "CLASSIFICATION_TYPE": "U", "NORAD_CAT_ID": 41194, "ELEMENT_SET_NO": 999, "REV_AT_EPOCH": 3659, "BSTAR": 0, "MEAN_MOTION_DOT": -3.26e-06, "MEAN_MOTION_DDOT": 0}, "tle": {"line1": "1 41194U 15083A   25339.91086459 -.00000326  00000+0  00000+0 0  9990", "line2": "2 41194   0.1521  80.9122 0003644 105.7720 321.8871  1.00272405 36595"}}, "geometry": {"type": "Point", "coordinates": [-35.27323893204718, -0.14010073549049612]}}, {"type": "Feature", "properties": {"norad_id": 41240, "name": "JASON-3", "group": "resource", "lat": 64.5677702316478, "lon": -119.60090846498223, "alt_km": 1309.2065501974848, "timestamp": "2025-12-06T09:34:16.575246+00:00", "meta": {"OBJECT_NAME": "JASON-3", "OBJECT_ID": "2016-002A", "EPOCH": "2025-12-05T21:57:58.331808", "MEAN_MOTION": 12.87626238, "ECCENTRICITY": 0.00071329, "INCLINATION": 66.0391, "RA_OF_ASC_NODE": 172.1723, "ARG_OF_PERICENTER": 270.3827, "MEAN_ANOMALY": 89.6374, "EPHEMERIS_TYPE": 0, "CLASSIFICATION_TYPE": "U", "NORAD_CAT_ID": 41240, "ELEMENT_SET_NO": 999, "REV_AT_EPOCH": 46236, "BSTAR": 0.0001830301, "MEAN_MOTION_DOT": -1.6e-07, "MEAN_MOTION_DDOT": 0}, "tle": {"line1": "1 41240U 16002A   25339.91525847 -.00000016  00000+0  18303-3 0  9998", "line2": "2 41240  66.0391 172.1723 0007132 270.3827  89.6374 12.87626238462366"}}, "geometry": {"type": "Point", "coordinates": [-119.60090846498223, 64.5677702316478]}}]}